              M50 Cartesian                         J2K Cartesian  
    -----------------------------------       --------------------------------
     X    =       14923351.27                 X    =         4596164.54
     Y    =       -7687835.39  feet           Y    =        -2292121.20  meter
     Z    =      -14630785.31                 Z    =        -4437251.31
     XDOT =        941.132009                 XDOT =         225.937073
     YDOT =      22612.338208  feet/sec       YDOT =        6895.107439  meter/sec
     ZDOT =     -10922.684801                 ZDOT =       -3327.989736
 
              TDR Cartesian                         TDR Cartesian  
    -----------------------------------       --------------------------------
     X    =       16584660.03                 X    =         5055004.38
     Y    =       -3095950.11  feet           Y    =         -943645.59  meter
     Z    =      -14533865.61                 Z    =        -4429922.24
     XDOT =      -5693.231738                 XDOT =       -1735.297034
     YDOT =      20754.308258  feet/sec       YDOT =        6325.913157  meter/sec
     ZDOT =     -10918.429133                 ZDOT =       -3327.937200
  
  
    The mean element set is posted at the UTC for which position is
    just north of the next ascending node relative to the above
    vector time
 
 
    TWO LINE MEAN ELEMENT SET
  
    ISS
    1 25544U 98067A   16086.46655275  .00016717  00000-0  10270-3 0  9075
    2 25544  51.6414 110.6037 0002099 354.4449   5.6680 15.54271514 32111
  
  
    Satellite: ISS
    Catalog Number: 25544
    Epoch time:      16086.46655275   =   yrday.fracday
    Element set:     907
    Inclination:       51.6414  deg
    RA of node:       110.6037  deg
    Eccentricity:     .0002099     
    Arg of perigee:   354.4449  deg
    Mean anomaly:       5.6680  deg
    Mean motion:   15.54271514  rev/day
    Decay rate:    1.67170E-04  rev/day^2
    Epoch rev:            3211
    Checksum:              300
 
 
    Coasting Arc #9 (Orbit 3226)
    ---------------------------------------
 
    Vector Time (GMT): 2016/087/10:40:00.000
    Vector Time (MET): N/A
    Weight (LBS)     : 917037.0
 
              M50 Cartesian                         M50 Keplerian  
    -----------------------------------       --------------------------------
     X    =       -4338611.57                 A    =         6777597.33  meter
     Y    =         596101.48  meter          E    =           .0003893
     Z    =        5169490.89                 I    =           51.97836
     XDOT =        763.943694                 Wp   =           96.95703
     YDOT =      -7484.138108  meter/sec      RA   =          104.81380  deg
     ZDOT =       1502.738498                 TA   =          338.63713
                                              MA   =          338.65337
                                              Ha   =            221.057  n.mi
                                              Hp   =            214.356
 
              M50 Cartesian                         J2K Cartesian  
    -----------------------------------       --------------------------------
     X    =      -14234289.94                 X    =        -4370066.24
     Y    =        1955713.52  feet           Y    =          547408.99  meter
     Z    =       16960271.93                 Z    =         5148338.35
     XDOT =       2506.376948                 XDOT =         840.276692
     YDOT =     -24554.258886  feet/sec       YDOT =       -7475.168198  meter/sec
     ZDOT =       4930.244417                 ZDOT =        1506.635884
 
              TDR Cartesian                         TDR Cartesian  
    -----------------------------------       --------------------------------
     X    =      -14342577.60                 X    =        -4371617.65
     Y    =       -1960478.71  feet           Y    =         -597553.91  meter
     Z    =       16868243.55                 Z    =         5141440.64
     XDOT =       8825.054881                 XDOT =        2689.876728
     YDOT =     -21945.173075  feet/sec       YDOT =       -6688.888753  meter/sec
     ZDOT =       4948.451401                 ZDOT =        1508.287987
  
  
    The mean element set is posted at the UTC for which position is
    just north of the next ascending node relative to the above
    vector time
 
 
    TWO LINE MEAN ELEMENT SET
  
    ISS
    1 25544U 98067A   16087.49528074  .00016717  00000-0  10270-3 0  9086
    2 25544  51.6412 105.4744 0002253    .3404 359.7750 15.54300507 32279
  
  
    Satellite: ISS
    Catalog Number: 25544
    Epoch time:      16087.49528074   =   yrday.fracday
    Element set:     908
    Inclination:       51.6412  deg
    RA of node:       105.4744  deg
    Eccentricity:     .0002253     
    Arg of perigee:      .3404  deg
    Mean anomaly:     359.7750  deg
    Mean motion:   15.54300507  rev/day
    Decay rate:    1.67170E-04  rev/day^2
    Epoch rev:            3227
    Checksum:              289
 
 
    Coasting Arc #10 (Orbit 3241)
    ---------------------------------------
 
    Vector Time (GMT): 2016/088/10:40:00.000
    Vector Time (MET): N/A
    Weight (LBS)     : 917037.0
 
              M50 Cartesian                         M50 Keplerian  
    -----------------------------------       --------------------------------
     X    =        4009231.65                 A    =         6776976.02  meter
     Y    =        1261307.00  meter          E    =           .0014846
     Z    =       -5328898.42                 I    =           51.98415
     XDOT =      -1686.870878                 Wp   =           85.19794
     YDOT =       7453.318483  meter/sec      RA   =           99.83596  deg
     ZDOT =        497.409304                 TA   =          189.51705
                                              MA   =          189.54521
                                              Ha   =            220.952  n.mi
                                              Hp   =            214.486
 
              M50 Cartesian                         J2K Cartesian  
    -----------------------------------       --------------------------------
     X    =       13153647.14                 X    =         4020715.13
     Y    =        4138146.33  feet           Y    =         1306204.53  meter
     Z    =      -17483262.52                 Z    =        -5309394.66
     XDOT =      -5534.353273                 XDOT =       -1772.506587
     YDOT =      24453.144630  feet/sec       YDOT =        7433.976007  meter/sec
     ZDOT =       1631.920288                 ZDOT =         489.006045
 
              TDR Cartesian                         TDR Cartesian  
    -----------------------------------       --------------------------------
     X    =       11798752.26                 X    =         3596259.69
     Y    =        7340392.71  feet           Y    =         2237351.70  meter
     Z    =      -17398713.65                 Z    =        -5303127.92
     XDOT =     -10982.044100                 XDOT =       -3347.327042
     YDOT =      21411.998481  feet/sec       YDOT =        6526.377137  meter/sec
     ZDOT =       1594.117274                 ZDOT =         485.886945
  
  
    The mean element set is posted at the UTC for which position is
    just north of the next ascending node relative to the above
    vector time
 
 
    TWO LINE MEAN ELEMENT SET
  
    ISS
    1 25544U 98067A   16088.45970680  .00016717  00000-0  10270-3 0  9098
    2 25544  51.6419 100.6660 0002234   1.7880 358.3281 15.54285970 32429
  
  
    Satellite: ISS
    Catalog Number: 25544
    Epoch time:      16088.45970680   =   yrday.fracday
    Element set:     909
    Inclination:       51.6419  deg
    RA of node:       100.6660  deg
    Eccentricity:     .0002234     
    Arg of perigee:     1.7880  deg
    Mean anomaly:     358.3281  deg
    Mean motion:   15.54285970  rev/day
    Decay rate:    1.67170E-04  rev/day^2
    Epoch rev:            3242
    Checksum:              311
 
 
    Coasting Arc #11 (Orbit 3257)
    ---------------------------------------
 
    Vector Time (GMT): 2016/089/10:40:00.000
    Vector Time (MET): N/A
    Weight (LBS)     : 917037.0
 
              M50 Cartesian                         M50 Keplerian  
    -----------------------------------       --------------------------------
     X    =       -3563917.97                 A    =         6778703.01  meter
     Y    =       -3070901.43  meter          E    =           .0008630
     Z    =        4877199.27                 I    =           51.99420
     XDOT =       2505.873969                 Wp   =           47.60758
     YDOT =      -6821.529741  meter/sec      RA   =           94.86012  deg
     ZDOT =      -2455.593452                 TA   =           66.40834
                                              MA   =           66.31773
                                              Ha   =            221.052  n.mi
                                              Hp   =            214.184
 
              M50 Cartesian                         J2K Cartesian  
    -----------------------------------       --------------------------------
     X    =      -11692644.27                 X    =        -3553005.00
     Y    =      -10075135.93  feet           Y    =        -3110694.05  meter
     Z    =       16001309.93                 Z    =         4859913.33
     XDOT =       8221.371288                 XDOT =        2593.896065
     YDOT =     -22380.346919  feet/sec       YDOT =       -6793.015466  meter/sec
     ZDOT =      -8056.408962                 ZDOT =       -2443.206016
 
